{
  "type": "FeatureCollection",
  "features": [
    {
      "type": "Feature",
      "properties": {
        "norad_id": 34350,
        "name": "IRIDIUM 33 DEB",
        "group": "iridium-33-debris",
        "lat": 11.902459306537619,
        "lon": -174.37235076567572,
        "alt_km": 726.7286362084851,
        "timestamp": "2025-12-04T10:51:50.490430+00:00",
        "meta_object_name": "IRIDIUM 33 DEB",
        "meta_object_id": "1997-051ES",
        "meta_epoch": "2025-12-04T01:54:53.906112",
        "meta_mean_motion": 14.45357099,
        "meta_eccentricity": 0.0021934,
        "meta_inclination": 86.3281,
        "meta_ra_of_asc_node": 6.5649,
        "meta_arg_of_pericenter": 162.4763,
        "meta_mean_anomaly": 226.5026,
        "meta_ephemeris_type": 0,
        "meta_classification_type": "U",
        "meta_norad_cat_id": 34350,
        "meta_element_set_no": 999,
        "meta_rev_at_epoch": 88168,
        "meta_bstar": 0.00057237,
        "meta_mean_motion_dot": 2.036e-05,
        "meta_mean_motion_ddot": 0,
        "tle_line1": "1 34350U 97051ES  25338.07979058  .00002036  00000+0  57237-3 0  9990",
        "tle_line2": "2 34350  86.3281   6.5649 0021934 162.4763 226.5026 14.45357099881684"
      },
      "geometry": {
        "type": "Point",
        "coordinates": [
          -174.37235076567572,
          11.902459306537619
        ]
      }
    },
    {
      "type": "Feature",
      "properties": {
        "norad_id": 34366,
        "name": "IRIDIUM 33 DEB",
        "group": "iridium-33-debris",
        "lat": -58.977087919680166,
        "lon": -121.02551870128235,
        "alt_km": 715.4957982800815,
        "timestamp": "2025-12-04T10:51:50.490441+00:00",
        "meta_object_name": "IRIDIUM 33 DEB",
        "meta_object_id": "1997-051FJ",
        "meta_epoch": "2025-12-03T16:10:25.403232",
        "meta_mean_motion": 14.53916693,
        "meta_eccentricity": 0.00217683,
        "meta_inclination": 86.3709,
        "meta_ra_of_asc_node": 53.2552,
        "meta_arg_of_pericenter": 168.8,
        "meta_mean_anomaly": 316.5476,
        "meta_ephemeris_type": 0,
        "meta_classification_type": "U",
        "meta_norad_cat_id": 34366,
        "meta_element_set_no": 999,
        "meta_rev_at_epoch": 88050,
        "meta_bstar": 0.0018858841,
        "meta_mean_motion_dot": 7.981e-05,
        "meta_mean_motion_ddot": 0,
        "tle_line1": "1 34366U 97051FJ  25337.67390513  .00007981  00000+0  18859-2 0  9995",
        "tle_line2": "2 34366  86.3709  53.2552 0021768 168.8000 316.5476 14.53916693880506"
      },
      "geometry": {
        "type": "Point",
        "coordinates": [
          -121.02551870128235,
          -58.977087919680166
        ]
      }
    },
    {
      "type": "Feature",
      "properties": {
        "norad_id": 34375,
        "name": "IRIDIUM 33 DEB",
        "group": "iridium-33-debris",
        "lat": 32.90415255735216,
        "lon": 3.7235615964574853,
        "alt_km": 756.7029855515639,
        "timestamp": "2025-12-04T10:51:50.490452+00:00",
        "meta_object_name": "IRIDIUM 33 DEB",
        "meta_object_id": "1997-051FT",
        "meta_epoch": "2025-12-04T02:19:13.604736",
        "meta_mean_motion": 14.17969108,
        "meta_eccentricity": 0.0102564,
        "meta_inclination": 86.4331,
        "meta_ra_of_asc_node": 186.18,
        "meta_arg_of_pericenter": 153.93,
        "meta_mean_anomaly": 337.07,
        "meta_ephemeris_type": 0,
        "meta_classification_type": "U",
        "meta_norad_cat_id": 34375,
        "meta_element_set_no": 999,
        "meta_rev_at_epoch": 86589,
        "meta_bstar": 0.00070165,
        "meta_mean_motion_dot": 1.531e-05,
        "meta_mean_motion_ddot": 0,
        "tle_line1": "1 34375U 97051FT  25338.09668524  .00001531  00000+0  70165-3 0  9996",
        "tle_line2": "2 34375  86.4331 186.1800 0102564 153.9300 337.0700 14.17969108865894"
      },
      "geometry": {
        "type": "Point",
        "coordinates": [
          3.7235615964574853,
          32.90415255735216
        ]
      }
    },
    {
      "type": "Feature",
      "properties": {
        "norad_id": 34376,
        "name": "IRIDIUM 33 DEB",
        "group": "iridium-33-debris",
        "lat": -84.44829821508958,
        "lon": -31.484650856015303,
        "alt_km": 689.4394578320789,
        "timestamp": "2025-12-04T10:51:50.490462+00:00",
        "meta_object_name": "IRIDIUM 33 DEB",
        "meta_object_id": "1997-051FU",
        "meta_epoch": "2025-12-03T20:28:37.375104",
        "meta_mean_motion": 14.62362508,
        "meta_eccentricity": 0.0026132,
        "meta_inclination": 86.2992,
        "meta_ra_of_asc_node": 10.5349,
        "meta_arg_of_pericenter": 197.0147,
        "meta_mean_anomaly": 163.0191,
        "meta_ephemeris_type": 0,
        "meta_classification_type": "U",
        "meta_norad_cat_id": 34376,
        "meta_element_set_no": 999,
        "meta_rev_at_epoch": 87877,
        "meta_bstar": 0.0029365,
        "meta_mean_motion_dot": 0.00014948,
        "meta_mean_motion_ddot": 0,
        "tle_line1": "1 34376U 97051FU  25337.85321036  .00014948  00000+0  29365-2 0  9995",
        "tle_line2": "2 34376  86.2992  10.5349 0026132 197.0147 163.0191 14.62362508878771"
      },
      "geometry": {
        "type": "Point",
        "coordinates": [
          -31.484650856015303,
          -84.44829821508958
        ]
      }
    },
    {
      "type": "Feature",
      "properties": {
        "norad_id": 34486,
        "name": "IRIDIUM 33 DEB",
        "group": "iridium-33-debris",
        "lat": -46.54840109117828,
        "lon": -160.33450856423147,
        "alt_km": 588.0881192023999,
        "timestamp": "2025-12-04T10:51:50.490473+00:00",
        "meta_object_name": "IRIDIUM 33 DEB",
        "meta_object_id": "1997-051GB",
        "meta_epoch": "2025-12-04T03:41:51.118368",
        "meta_mean_motion": 14.951815,
        "meta_eccentricity": 0.0013023,
        "meta_inclination": 86.394,
        "meta_ra_of_asc_node": 15.9863,
        "meta_arg_of_pericenter": 140.9136,
        "meta_mean_anomaly": 279.2911,
        "meta_ephemeris_type": 0,
        "meta_classification_type": "U",
        "meta_norad_cat_id": 34486,
        "meta_element_set_no": 999,
        "meta_rev_at_epoch": 88858,
        "meta_bstar": 0.0048037,
        "meta_mean_motion_dot": 0.00053192,
        "meta_mean_motion_ddot": 0,
        "tle_line1": "1 34486U 97051GB  25338.15406387  .00053192  00000+0  48037-2 0  9995",
        "tle_line2": "2 34486  86.3940  15.9863 0013023 140.9136 279.2911 14.95181500888584"
      },
      "geometry": {
        "type": "Point",
        "coordinates": [
          -160.33450856423147,
          -46.54840109117828
        ]
      }
    },
    {
      "type": "Feature",
      "properties": {
        "norad_id": 34487,
        "name": "IRIDIUM 33 DEB",
        "group": "iridium-33-debris",
        "lat": -0.4727825483933099,
        "lon": 15.914909785962113,
        "alt_km": 771.6550620373064,
        "timestamp": "2025-12-04T10:51:50.490484+00:00",
        "meta_object_name": "IRIDIUM 33 DEB",
        "meta_object_id": "1997-051GC",
        "meta_epoch": "2025-12-03T10:12:00.081216",
        "meta_mean_motion": 14.43196495,
        "meta_eccentricity": 0.00319082,
        "meta_inclination": 86.3443,
        "meta_ra_of_asc_node": 16.3873,
        "meta_arg_of_pericenter": 157.9365,
        "meta_mean_anomaly": 266.0119,
        "meta_ephemeris_type": 0,
        "meta_classification_type": "U",
        "meta_norad_cat_id": 34487,
        "meta_element_set_no": 999,
        "meta_rev_at_epoch": 88114,
        "meta_bstar": 0.00029137047,
        "meta_mean_motion_dot": 1.005e-05,
        "meta_mean_motion_ddot": 0,
        "tle_line1": "1 34487U 97051GC  25337.42500094  .00001005  00000+0  29137-3 0  9992",
        "tle_line2": "2 34487  86.3443  16.3873 0031908 157.9365 266.0119 14.43196495881144"
      },
      "geometry": {
        "type": "Point",
        "coordinates": [
          15.914909785962113,
          -0.4727825483933099
        ]
      }
    },
    {
      "type": "Feature",
      "properties": {
        "norad_id": 34488,
        "name": "IRIDIUM 33 DEB",
        "group": "iridium-33-debris",
        "lat": -36.293998529231395,
        "lon": -52.79589916788872,
        "alt_km": 494.56132048036216,
        "timestamp": "2025-12-04T10:51:50.490496+00:00",
        "meta_object_name": "IRIDIUM 33 DEB",
        "meta_object_id": "1997-051GD",
        "meta_epoch": "2025-12-04T04:43:46.394400",
        "meta_mean_motion": 15.26377687,
        "meta_eccentricity": 0.0015526,
        "meta_inclination": 86.3256,
        "meta_ra_of_asc_node": 310.0352,
        "meta_arg_of_pericenter": 64.3641,
        "meta_mean_anomaly": 295.9208,
        "meta_ephemeris_type": 0,
        "meta_classification_type": "U",
        "meta_norad_cat_id": 34488,
        "meta_element_set_no": 999,
        "meta_rev_at_epoch": 89109,
        "meta_bstar": 0.0085127,
        "meta_mean_motion_dot": 0.00228455,
        "meta_mean_motion_ddot": 0,
        "tle_line1": "1 34488U 97051GD  25338.19706475  .00228455  00000+0  85127-2 0  9999",
        "tle_line2": "2 34488  86.3256 310.0352 0015526  64.3641 295.9208 15.26377687891090"
      },
      "geometry": {
        "type": "Point",
        "coordinates": [
          -52.79589916788872,
          -36.293998529231395
        ]
      }
    }
  ]
}